0 FENGYUN 1C DEB
1 31316U 99025BPU 13281.25367955  .00001973  00000-0  12140-2 0  4496
2 31316 099.1519 293.8751 0127698 152.9773 207.8117 14.02773610335549
0 FENGYUN 1C DEB
1 31316U 99025BPU 13283.25083642  .00002076  00000-0  12760-2 0  4501
2 31316 099.1519 295.8821 0127741 147.4408 213.4812 14.02782885335822
0 FENGYUN 1C DEB
1 31316U 99025BPU 13285.24797403  .00002181  00000-0  13383-2 0  4519
2 31316 099.1521 297.8879 0128020 141.9699 219.0672 14.02792888336104
0 FENGYUN 1C DEB
1 31316U 99025BPU 13287.24509812  .00002331  00000-0  14273-2 0  4523
2 31316 099.1557 299.9020 0128478 136.5292 224.6264 14.02803351336387
0 FENGYUN 1C DEB
1 31316U 99025BPU 13290.24075149  .00002418  00000-0  14786-2 0  4534
2 31316 099.1527 302.9057 0128911 128.2179 233.0778 14.02818796336803
0 FENGYUN 1C DEB
1 31316U 99025BPU 13293.23636531  .00002539  00000-0  15507-2 0  4541
2 31316 099.1557 305.9280 0128705 119.9259 241.4841 14.02835237337224
0 FENGYUN 1C DEB
1 31316U 99025BPU 13295.23341949  .00002379  00000-0  14562-2 0  4552
2 31316 099.1540 307.9345 0127866 114.4344 247.0091 14.02843629337506
